[{"OBJECT_NAME":"STARLINK-32043","OBJECT_ID":"2024-120A","EPOCH":"2026-03-09T22:16:12.424512","MEAN_MOTION":15.30202158,"ECCENTRICITY":9.157e-5,"INCLINATION":53.1602,"RA_OF_ASC_NODE":318.7489,"ARG_OF_PERICENTER":111.6716,"MEAN_ANOMALY":248.4383,"EPHEMERIS_TYPE":0,"CLASSIFICATION_TYPE":"U","NORAD_CAT_ID":60135,"ELEMENT_SET_NO":999,"REV_AT_EPOCH":9641,"BSTAR":3.6616173e-5,"MEAN_MOTION_DOT":7.26e-6,"MEAN_MOTION_DDOT":0},{"OBJECT_NAME":"SCS-01 H","OBJECT_ID":"2025-100H","EPOCH":"2026-03-09T23:19:05.376864","MEAN_MOTION":15.31767757,"ECCENTRICITY":0.00071581,"INCLINATION":97.3749,"RA_OF_ASC_NODE":145.8085,"ARG_OF_PERICENTER":277.8492,"MEAN_ANOMALY":82.1937,"EPHEMERIS_TYPE":0,"CLASSIFICATION_TYPE":"U","NORAD_CAT_ID":63989,"ELEMENT_SET_NO":999,"REV_AT_EPOCH":4566,"BSTAR":0.0011436254,"MEAN_MOTION_DOT":0.00035149,"MEAN_MOTION_DDOT":0}]
